STARLINK-32881          
1 62997U 25031S   26068.27242200  .00032603  00000+0  11892-2 0  9991
2 62997  43.0013 145.4957 0001164 231.6064 128.4683 15.27575290 61030
TEVEL2-1                
1 63217U 25052H   26068.64782323  .00020683  00000+0  70600-3 0  9994
2 63217  97.3991 324.7682 0004767 104.8919 255.2849 15.30341923 54855
